FENGYUN 1C DEB          
1 30548U 99025AKN 17345.86859939  .00000691  00000-0  40148-3 0  9998
2 30548  99.7085 306.2912 0082845 150.4977 265.7439 14.10781888556696
